GPS BIIR-2  (PRN 13)    
1 24876U 97035A   24135.37459524  .00000055  00000+0  00000+0 0  9993
2 24876  55.6603 128.4529 0078371  51.8378 308.8660  2.00565608196631
GPS BIIR-4  (PRN 20)    
1 26360U 00025A   24135.48462461 -.00000083  00000+0  00000+0 0  9994
2 26360  54.6413  50.2551 0037328 214.5547 311.1880  2.00550536175956
GPS BIIR-5  (PRN 22)    
1 26407U 00040A   24135.60150263 -.00000041  00000+0  00000+0 0  9995
2 26407  55.0810 245.5210 0145154 294.4979 157.9037  2.00559847174636
GPS BIIR-8  (PRN 16)    
1 27663U 03005A   24135.30401944 -.00000039  00000+0  00000+0 0  9993
2 27663  55.1204 245.3439 0137639  47.4360 325.5924  2.00551536155992
GPS BIIR-9  (PRN 21)    
1 27704U 03010A   24135.23890983 -.00000105  00000+0  00000+0 0  9996
2 27704  55.1025 355.1601 0253505 326.6111 218.2242  2.00561776154781
GPS BIIR-11 (PRN 19)    
1 28190U 04009A   24135.54528559 -.00000055  00000+0  00000+0 0  9990
2 28190  55.4840 306.3803 0096929 146.4007 200.7110  2.00560196147628
GPS BIIR-13 (PRN 02)    
1 28474U 04045A   24135.26601855 -.00000104  00000+0  00000+0 0  9990
2 28474  55.4309 355.5664 0162168 291.6173 259.1497  2.00560814143102
GPS BIIRM-1 (PRN 17)    
1 28874U 05038A   24135.55619983 -.00000053  00000+0  00000+0 0  9993
2 28874  55.5305 303.8402 0135983 284.0489  95.3599  2.00557829136523
GPS BIIRM-2 (PRN 31)    
1 29486U 06042A   24135.18505497  .00000014  00000+0  00000+0 0  9998
2 29486  54.6763 181.6338 0103271  37.5969 334.2084  2.00557877129079
GPS BIIRM-3 (PRN 12)    
1 29601U 06052A   24135.59607622 -.00000041  00000+0  00000+0 0  9997
2 29601  55.1493 244.3078 0085979  82.6483 278.3398  2.00565789128096
GPS BIIRM-4 (PRN 15)    
1 32260U 07047A   24135.39913372  .00000035  00000+0  00000+0 0  9999
2 32260  53.5906 111.6487 0153696  74.6850 286.9890  2.00566059121493
GPS BIIRM-5 (PRN 29)    
1 32384U 07062A   24134.96422104 -.00000053  00000+0  00000+0 0  9994
2 32384  55.6688 304.7215 0027727 148.8713  24.5549  2.00572884120186
GPS BIIRM-6 (PRN 07)    
1 32711U 08012A   24135.31897056  .00000016  00000+0  00000+0 0  9994
2 32711  54.4485 180.3998 0186742 238.6198 119.6051  2.00567253118439
GPS BIIRM-8 (PRN 05)    
1 35752U 09043A   24135.45571170 -.00000069  00000+0  00000+0 0  9997
2 35752  55.6469  57.6245 0056190  70.7209  43.9261  2.00571237108049
GPS BIIF-1  (PRN 25)    
1 36585U 10022A   24133.88170594 -.00000024  00000+0  00000+0 0  9992
2 36585  54.4585 239.4255 0115425  61.9363 119.0075  2.00575076102240
GPS BIIF-3  (PRN 24)    
1 38833U 12053A   24135.49495446  .00000024  00000+0  00000+0 0  9990
2 38833  53.5139 174.8457 0150559  55.4686 306.0080  2.00558184 84123
GPS BIIF-4  (PRN 27)    
1 39166U 13023A   24133.86255634 -.00000050  00000+0  00000+0 0  9990
2 39166  55.1445 300.0030 0124047  44.5311 316.4406  2.00563062 80537
GPS BIIF-5  (PRN 30)    
1 39533U 14008A   24135.36033880  .00000015  00000+0  00000+0 0  9996
2 39533  53.5971 180.4442 0072577 219.7664 139.7650  2.00566531 74360
GPS BIIF-6  (PRN 06)    
1 39741U 14026A   24135.13855290 -.00000107  00000+0  00000+0 0  9992
2 39741  56.7102   1.1863 0031708 317.0417  42.7521  2.00570923 73210
GPS BIIF-7  (PRN 09)    
1 40105U 14045A   24135.23149324  .00000045  00000+0  00000+0 0  9994
2 40105  54.9169 118.9643 0024767 116.0311 244.2124  2.00563995 70754
GPS BIIF-8  (PRN 03)    
1 40294U 14068A   24135.10250561 -.00000061  00000+0  00000+0 0  9999
2 40294  56.3938  60.5701 0052583  60.7522 299.7673  2.00557615 69884
GPS BIIF-9  (PRN 26)    
1 40534U 15013A   24135.23560410 -.00000038  00000+0  00000+0 0  9992
2 40534  53.3556 235.8051 0087435  29.7984 330.7213  2.00567564 66506
GPS BIIF-10 (PRN 08)    
1 40730U 15033A   24133.40315588 -.00000051  00000+0  00000+0 0  9998
2 40730  54.6290 298.5125 0093980  19.3802 340.9528  2.00568797 64630
GPS BIIF-11 (PRN 10)    
1 41019U 15062A   24132.96216890 -.00000063  00000+0  00000+0 0  9990
2 41019  56.3730  60.5064 0094787 225.3501 133.8663  2.00562431 62466
GPS BIIF-12 (PRN 32)    
1 41328U 16007A   24135.03737045  .00000045  00000+0  00000+0 0  9993
2 41328  55.1132 119.8067 0079635 238.6547 120.5526  2.00563645 60518
GPS BIII-1  (PRN 04)    
1 43873U 18109A   24135.42463788  .00000051  00000+0  00000+0 0  9995
2 43873  55.2848 122.3610 0028663 195.8412 336.2483  2.00554534 39750
GPS BIII-2  (PRN 18)    
1 44506U 19056A   24135.06421810 -.00000108  00000+0  00000+0 0  9995
2 44506  55.8403   1.4333 0040947 188.3832 343.2934  2.00571596 34748
GPS BIII-3  (PRN 23)    
1 45854U 20041A   24131.69851275 -.00000070  00000+0  00000+0 0  9993
2 45854  56.0938  58.8992 0041566 193.3536   4.9579  2.00559134 28645
GPS BIII-4  (PRN 14)    
1 46826U 20078A   24135.52477064 -.00000041  00000+0  00000+0 0  9997
2 46826  54.1943 241.7756 0044960 195.7562 223.3112  2.00560425 26190
GPS BIII-5  (PRN 11)    
1 48859U 21054A   24134.46620267 -.00000110  00000+0  00000+0 0  9994
2 48859  55.3643   3.1244 0014112 221.1947 338.7137  2.00560359 21411
GPS BIII-6  (PRN 28)    
1 55268U 23009A   24135.37202240  .00000020  00000+0  00000+0 0  9995
2 55268  55.0841 178.4927 0001370 109.2826  66.1140  2.00566542  9926
